{"fetched_at":"2026-03-29T16:36:15Z","count":15609,"tles":[{"name":"STARLINK-31669","line1":"1 59515U 24073E   26087.68583075  .00002237  00000+0  90789-4 0  9996","line2":"2 59515  42.9997 210.4990 0001137 266.6714  93.4008 15.27584970109086","category":"Starlink"}]}